[{"OBJECT_NAME":"STARLINK-34762","OBJECT_ID":"2025-195R","EPOCH":"2026-03-09T22:53:59.162208","MEAN_MOTION":15.30202082,"ECCENTRICITY":0.0001068,"INCLINATION":53.1565,"RA_OF_ASC_NODE":256.9897,"ARG_OF_PERICENTER":71.9033,"MEAN_ANOMALY":288.2084,"EPHEMERIS_TYPE":0,"CLASSIFICATION_TYPE":"U","NORAD_CAT_ID":65473,"ELEMENT_SET_NO":999,"REV_AT_EPOCH":3001,"BSTAR":0.00097008167,"MEAN_MOTION_DOT":0.00028484,"MEAN_MOTION_DDOT":0},{"OBJECT_NAME":"SL-3 R\/B","OBJECT_ID":"1982-079B","EPOCH":"2026-03-09T22:18:18.158976","MEAN_MOTION":15.24805533,"ECCENTRICITY":0.00250364,"INCLINATION":81.1481,"RA_OF_ASC_NODE":192.7939,"ARG_OF_PERICENTER":164.0597,"MEAN_ANOMALY":196.143,"EPHEMERIS_TYPE":0,"CLASSIFICATION_TYPE":"U","NORAD_CAT_ID":13403,"ELEMENT_SET_NO":999,"REV_AT_EPOCH":37773,"BSTAR":0.00032485557,"MEAN_MOTION_DOT":8.157e-5,"MEAN_MOTION_DDOT":0}]
